{"_id":{"$oid":"55f14312c7447c3da7051b26"},"num":1,"address":"228 City Road","name":".CN Chinese","outcode":"CF24","postcode":"3JH","rating":5,"type_of_food":"Chinese"}
{"_id":{"$oid":"55f14312c7447c3da7051b27"},"num":2,"address":"376 Rayleigh Road","name":"@ Thai","outcode":"SS9","postcode":"5PT","rating":5,"type_of_food":"Thai"}
{"_id":{"$oid":"55f14312c7447c3da7051b28"},"num":3,"address":"30 Greyhound Road Hammersmith","name":"@ Thai Restaurant","outcode":"W6","postcode":"8NX","rating":4,"type_of_food":"Thai"}
{"_id":{"$oid":"55f14312c7447c3da7051b29"},"num":4,"address":"30 Greyhound Road Hammersmith","name":"@ Thai Restaurant","outcode":"W6","postcode":"8NX","rating":4,"type_of_food":"Thai"}
{"_id":{"$oid":"55f14312c7447c3da7051b2a"},"num":5,"address":"9 Broughton Hall Road","name":"@Indian.com","outcode":"CH4","postcode":"0QR","rating":6,"type_of_food":"Curry"}
{"_id":{"$oid":"55f14312c7447c3da7051b2b"},"num":6,"address":"6 Drummond Street","name":"007 Takeaway","outcode":"S65","postcode":"1HY","rating":6,"type_of_food":"Pizza"}
{"_id":{"$oid":"55f14312c7447c3da7051b2c"},"num":7,"address":"885 High Road Leytonstone","name":"042 Restaurant \u0026 Bar","outcode":"E11","postcode":"1HR","rating":3,"type_of_food":"African"}
{"_id":{"$oid":"55f14312c7447c3da7051b2d"},"num":8,"address":"885 High Road Leytonstone","name":"042 Restaurant \u0026 Bar","outcode":"E11","postcode":"1HR","rating":3,"type_of_food":"African"}
{"_id":{"$oid":"55f14312c7447c3da7051b2e"},"num":9,"address":"885 High Road Leytonstone","name":"042 Restaurant \u0026 Bar","outcode":"E11","postcode":"1HR","rating":3,"type_of_food":"African"}
{"_id":{"$oid":"55f14312c7447c3da7051b2f"},"num":10,"address":"Unit 4 Spencer House","name":"1 2 3 Chinese","outcode":"NE16","postcode":"3DS","rating":4,"type_of_food":"Chinese"}
{"_id":{"$oid":"55f14312c7447c3da7051b30"},"num":11,"address":"Unit 4 Spencer House","name":"1 2 3 Chinese","outcode":"NE16","postcode":"3DS","rating":4,"type_of_food":"Chinese"}
{"_id":{"$oid":"55f14312c7447c3da7051b31"},"num":12,"address":"67 Park Street","name":"100 Degrees Chinese Restaurant","outcode":"CF37","postcode":"1SN","rating":5,"type_of_food":"Chinese"}
{"_id":{"$oid":"55f14312c7447c3da7051b32"},"num":13,"address":"50 Wallgate","name":"100 Menu","outcode":"WN1","postcode":"1JU","rating":5,"type_of_food":"Chinese"}
{"_id":{"$oid":"55f14312c7447c3da7051b33"},"num":14,"address":"104 Tanners Lane","name":"104 Turkish BBQ","outcode":"IG6","postcode":"1QE","rating":5,"type_of_food":"Turkish"}
{"_id":{"$oid":"55f14312c7447c3da7051b34"},"num":15,"address":"109 Westbourne Park Road","name":"109 Ristorante","outcode":"W2","postcode":"5QL","rating":5,"type_of_food":"Pizza"}
{"_id":{"$oid":"55f14312c7447c3da7051b35"},"num":16,"address":"113 Poulton Road","name":"113 Fish Bar","outcode":"CH44","postcode":"9DE","rating":5,"type_of_food":"Chinese"}
{"_id":{"$oid":"55f14312c7447c3da7051b36"},"num":17,"address":"133 Fullarton Street","name":"133 Takeaway","outcode":"KA12","postcode":"8DG","rating":7,"type_of_food":"Breakfast"}
{"_id":{"$oid":"55f14312c7447c3da7051b37"},"num":18,"address":"Red Lion Hotel","name":"1498 The Spice Affair","outcode":"PE11","postcode":"1SU","rating":5,"type_of_food":"Curry"}
{"_id":{"$oid":"55f14312c7447c3da7051b38"},"num":19,"address":"17 Alexandra Road","name":"168 Chinese \u0026 Cantonese Takeaway","outcode":"LS18","postcode":"4HE","rating":5,"type_of_food":"Chinese"}
{"_id":{"$oid":"55f14312c7447c3da7051b39"},"num":20,"address":"Unit 2 30 Greenock Road","name":"1A Wok","outcode":"PA7","postcode":"5JN","rating":5,"type_of_food":"Chinese"}
{"_id":{"$oid":"55f14312c7447c3da7051b3a"},"num":21,"address":"160 Leeds Road","name":"1pizza1","outcode":"LS26","postcode":"0JH","rating":4,"type_of_food":"Pizza"}
{"_id":{"$oid":"55f14312c7447c3da7051b3b"},"num":22,"address":"1 Walsall Road","name":"1st Choice Pizza","outcode":"WS11","postcode":"0HG","rating":4,"type_of_food":"Pizza"}
{"_id":{"$oid":"55f14312c7447c3da7051b3c"},"num":23,"address":"388 Filton Avenue","name":"1st Class Pizza","outcode":"BS7","postcode":"0BE","rating":4,"type_of_food":"Pizza"}
{"_id":{"$oid":"55f14312c7447c3da7051b3d"},"num":24,"address":"388 Filton Avenue","name":"1st Class Pizza","outcode":"BS7","postcode":"0BE","rating":4,"type_of_food":"Pizza"}
{"_id":{"$oid":"55f14312c7447c3da7051b3e"},"num":25,"address":"70 Carter Lane","name":"1st Class Pizza","outcode":"NG18","postcode":"3DH","rating":4,"type_of_food":"Pizza"}
{"_id":{"$oid":"55f14312c7447c3da7051b3f"},"num":26,"address":"470 Vernon Road","name":"1st Class Pizza \u0026 Kebab House","outcode":"NG6","postcode":"0AT","rating":4,"type_of_food":"Pizza"}
{"_id":{"$oid":"55f14312c7447c3da7051b40"},"num":27,"address":"137 Yorkshire Street","name":"2 4 1 Pizza","outcode":"OL1","postcode":"3TH","rating":5,"type_of_food":"Pizza"}
{"_id":{"$oid":"55f14312c7447c3da7051b41"},"num":28,"address":"19 Regent Street","name":"2 for 1 Pizza Place","outcode":"LE10","postcode":"0AZ","rating":5,"type_of_food":"Pizza"}
{"_id":{"$oid":"55f14312c7447c3da7051b42"},"num":29,"address":"2 Station Approach","name":"2 Spice","outcode":"RM14","postcode":"2TH","rating":5,"type_of_food":"Curry"}
{"_id":{"$oid":"55f14312c7447c3da7051b43"},"num":30,"address":"1776 Coventry Road","name":"2 Treat U","outcode":"B26","postcode":"1PB","rating":5,"type_of_food":"Pizza"}
{"_id":{"$oid":"55f14312c7447c3da7051b44"},"num":31,"address":"317 Wilmslow Road","name":"23rd Street Pizza","outcode":"M14","postcode":"6NW","rating":5,"type_of_food":"American"}
{"_id":{"$oid":"55f14312c7447c3da7051b45"},"num":32,"address":"317 Wilmslow Road","name":"23rd Street Pizza","outcode":"M14","postcode":"6NW","rating":5,"type_of_food":"American"}
{"_id":{"$oid":"55f14312c7447c3da7051b46"},"num":33,"address":"107 King Richards Road","name":"241 Pizza","outcode":"LE3","postcode":"5QG","rating":5,"type_of_food":"Pizza"}
{"_id":{"$oid":"55f14312c7447c3da7051b47"},"num":34,"address":"8 Victoria Avenue","name":"241 Pizza","outcode":"M9","postcode":"6QL","rating":5,"type_of_food":"Pizza"}
{"_id":{"$oid":"55f14312c7447c3da7051b48"},"num":35,"address":"22 Eddison Road","name":"2-4-1 Pizza","outcode":"NE38","postcode":"8JH","rating":4,"type_of_food":"Pizza"}
{"_id":{"$oid":"55f14312c7447c3da7051b49"},"num":36,"address":"88 Manchester Road","name":"2-4-1 Pizza","outcode":"M34","postcode":"3PR","rating":5,"type_of_food":"Pizza"}
{"_id":{"$oid":"55f14312c7447c3da7051b4a"},"num":37,"address":"88 Manchester Road","name":"2-4-1 Pizza","outcode":"M34","postcode":"3PR","rating":5,"type_of_food":"Pizza"}
{"_id":{"$oid":"55f14312c7447c3da7051b4b"},"num":38,"address":"280 Kilburn High Road","name":"280 Degrees African \u0026 Nigerian Restaurant","outcode":"NW6","postcode":"2BY","rating":2,"type_of_food":"African"}
{"_id":{"$oid":"55f14312c7447c3da7051b4c"},"num":39,"address":"280 Kilburn High Road","name":"280 Degrees African \u0026 Nigerian Restaurant","outcode":"NW6","postcode":"2BY","rating":2,"type_of_food":"African"}
{"_id":{"$oid":"55f14312c7447c3da7051b4d"},"num":40,"address":"47 Roosevelt Avenue","name":"3 Chef Fish Bar","outcode":"DE21","postcode":"6JR","rating":4,"type_of_food":"Fish \u0026 Chips"}
{"_id":{"$oid":"55f14312c7447c3da7051b4e"},"num":41,"address":"558 Burton Road","name":"3 Chefs","outcode":"DE23","postcode":"6FP","rating":4,"type_of_food":"American"}
{"_id":{"$oid":"55f14312c7447c3da7051b4f"},"num":42,"address":"45 Argyll Street DUNOON","name":"3 In 1 Dunoon","outcode":"PA23","postcode":"7HG","rating":5,"type_of_food":"Curry"}
{"_id":{"$oid":"55f14312c7447c3da7051b50"},"num":43,"address":"58 Aurs Drive","name":"3 in 1 Indian \u0026 Chipshop Barrhead","outcode":"G78","postcode":"2LW","rating":4,"type_of_food":"English"}
{"_id":{"$oid":"55f14312c7447c3da7051b51"},"num":44,"address":"67-69 Elmbank Street","name":"3 In 1 Xtra","outcode":"G2","postcode":"4PQ","rating":4,"type_of_food":"Curry"}
{"_id":{"$oid":"55f14312c7447c3da7051b52"},"num":45,"address":"67-69 Elmbank Street","name":"3 In 1 Xtra","outcode":"G2","postcode":"4PQ","rating":4,"type_of_food":"Curry"}
{"_id":{"$oid":"55f14312c7447c3da7051b53"},"num":46,"address":"67-69 Elmbank Street","name":"3 In 1 Xtra","outcode":"G2","postcode":"4PQ","rating":4,"type_of_food":"Curry"}
{"_id":{"$oid":"55f14312c7447c3da7051b54"},"num":47,"address":"148 St.Georges Road","name":"321 Pizzas, Kebabs \u0026 Burgers","outcode":"GL50","postcode":"3EL","rating":5,"type_of_food":"Pizza"}
{"_id":{"$oid":"55f14312c7447c3da7051b55"},"num":48,"address":"2-4 Commercial Street","name":"328 Chinese Online","outcode":"CF81","postcode":"9BW","rating":5,"type_of_food":"Chinese"}
{"_id":{"$oid":"55f14312c7447c3da7051b56"},"num":49,"address":"276 Waterloo Road","name":"333 Chinese Takeaway","outcode":"FY4","postcode":"3AF","rating":5,"type_of_food":"Chinese"}
{"_id":{"$oid":"55f14312c7447c3da7051b57"},"num":50,"address":"1550 Great Western Road","name":"333 Chinese Takeaway","outcode":"G13","postcode":"1HJ","rating":5,"type_of_food":"Chinese"}
{"_id":{"$oid":"55f14312c7447c3da7051b58"},"num":51,"address":"1276 Ashton Old Road","name":"333 Chinese Takeaway1","outcode":"M11","postcode":"1JJ","rating":4,"type_of_food":"Chinese"}
{"_id":{"$oid":"55f14312c7447c3da7051b59"},"num":52,"address":"136A Crankhall Lane","name":"350 Wok","outcode":"WS10","postcode":"0ED","rating":5,"type_of_food":"Chinese"}
{"_id":{"$oid":"55f14312c7447c3da7051b5a"},"num":53,"address":"136A Crankhall Lane","name":"350 Wok","outcode":"WS10","postcode":"0ED","rating":5,"type_of_food":"Chinese"}
{"_id":{"$oid":"55f14312c7447c3da7051b5b"},"num":54,"address":"136A Crankhall Lane","name":"350 Wok","outcode":"WS10","postcode":"0ED","rating":5,"type_of_food":"Chinese"}
{"_id":{"$oid":"55f14312c7447c3da7051b5c"},"num":55,"address":"122 Duke Street","name":"4 in 1 Express","outcode":"CH41","postcode":"8BT","rating":5,"type_of_food":"Pizza"}
{"_id":{"$oid":"55f14312c7447c3da7051b5d"},"num":56,"address":"10-12 Railway Road","name":"4 in Love","outcode":"PE30","postcode":"1NE","rating":5,"type_of_food":"Chinese"}
{"_id":{"$oid":"55f14312c7447c3da7051b5e"},"num":57,"address":"8 Colston Avenue","name":"4500 Miles From Delhi","outcode":"BS1","postcode":"4ST","rating":4,"type_of_food":"Curry"}
{"_id":{"$oid":"55f14312c7447c3da7051b5f"},"num":58,"address":"12-14 High Street","name":"4 Seasons Pizza \u0026 Grill","outcode":"DY3","postcode":"1RW","rating":5,"type_of_food":"Pizza"}
{"_id":{"$oid":"55f14312c7447c3da7051b60"},"num":59,"address":"41 Mount Street","name":"4550 Miles From Delhi - Collection Only","outcode":"NG1","postcode":"6HE","rating":6,"type_of_food":"Curry"}
{"_id":{"$oid":"55f14312c7447c3da7051b61"},"num":60,"address":"23 Berry Lane","name":"5 In 1 Takeaway","outcode":"PR3","postcode":"3JA","rating":5,"type_of_food":"Curry"}
{"_id":{"$oid":"55f14312c7447c3da7051b62"},"num":61,"address":"126 Castle Street","name":"5 'N' 1","outcode":"DD8","postcode":"2HS","rating":4,"type_of_food":"Curry"}
{"_id":{"$oid":"55f14312c7447c3da7051b63"},"num":62,"address":"362 Hornsey Road","name":"5 Star Chinese","outcode":"N19","postcode":"4HD","rating":5,"type_of_food":"Chinese"}
{"_id":{"$oid":"55f14312c7447c3da7051b64"},"num":63,"address":"362 Hornsey Road","name":"5 Star Chinese","outcode":"N19","postcode":"4HD","rating":5,"type_of_food":"Chinese"}
{"_id":{"$oid":"55f14312c7447c3da7051b65"},"num":64,"address":"423 Kingsbury Road","name":"5 Star Falafel @ GH Butchers","outcode":"NW9","postcode":"9DT","rating":4,"type_of_food":"Lebanese"}
{"_id":{"$oid":"55f14312c7447c3da7051b66"},"num":65,"address":"423 Kingsbury Road","name":"5 Star Falafel @ GH Butchers","outcode":"NW9","postcode":"9DT","rating":3,"type_of_food":"Lebanese"}
{"_id":{"$oid":"55f14312c7447c3da7051b67"},"num":66,"address":"103 Stafford Street","name":"5 Star Fish Bar","outcode":"WS2","postcode":"8DX","rating":5,"type_of_food":"American"}
{"_id":{"$oid":"55f14312c7447c3da7051b68"},"num":67,"address":"379 High Road","name":"5 Star Pizza","outcode":"HA9","postcode":"6AA","rating":2,"type_of_food":"Pizza"}
{"_id":{"$oid":"55f14312c7447c3da7051b69"},"num":68,"address":"379 High Road","name":"5 Star Pizza","outcode":"HA9","postcode":"6AA","rating":2,"type_of_food":"Pizza"}
{"_id":{"$oid":"55f14312c7447c3da7051b6a"},"num":69,"address":"379 High Road","name":"5 Star Pizza","outcode":"HA9","postcode":"6AA","rating":2,"type_of_food":"Pizza"}
{"_id":{"$oid":"55f14312c7447c3da7051b6b"},"num":70,"address":"379 High Road","name":"5 Star Pizza","outcode":"HA9","postcode":"6AA","rating":2,"type_of_food":"Pizza"}
{"_id":{"$oid":"55f14312c7447c3da7051b6c"},"num":71,"address":"104 Hiltop Road","name":"5 Star Pizza","outcode":"B70","postcode":"0SH","rating":5,"type_of_food":"Pizza"}
{"_id":{"$oid":"55f14312c7447c3da7051b6d"},"num":72,"address":"104 Hiltop Road","name":"5 Star Pizza","outcode":"B70","postcode":"0SH","rating":5,"type_of_food":"Pizza"}
{"_id":{"$oid":"55f14312c7447c3da7051b6e"},"num":73,"address":"104 Hiltop Road","name":"5 Star Pizza","outcode":"B70","postcode":"0SH","rating":5,"type_of_food":"Pizza"}
{"_id":{"$oid":"55f14312c7447c3da7051b6f"},"num":74,"address":"17-19 Northwood Road","name":"555 Hot Curry","outcode":"CT12","postcode":"6RR","rating":4,"type_of_food":"Curry"}
{"_id":{"$oid":"55f14312c7447c3da7051b70"},"num":75,"address":"72 Castle Street","name":"555 Pizza","outcode":"CT1","postcode":"2QD","rating":4,"type_of_food":"Pizza"}
{"_id":{"$oid":"55f14312c7447c3da7051b71"},"num":76,"address":"15 Northwood Road","name":"555 Pizza \u0026 Kebab","outcode":"CT12","postcode":"6RR","rating":4,"type_of_food":"Pizza"}
{"_id":{"$oid":"55f14312c7447c3da7051b72"},"num":77,"address":"81 Upper Aughton Road","name":"57 Orient Takeaway","outcode":"PR8","postcode":"5ND","rating":4,"type_of_food":"Chinese"}
{"_id":{"$oid":"55f14312c7447c3da7051b73"},"num":78,"address":"62 Newcastle Avenue","name":"62 Worksop Fish Bar","outcode":"S80","postcode":"1LA","rating":5,"type_of_food":"Fish \u0026 Chips"}
{"_id":{"$oid":"55f14312c7447c3da7051b74"},"num":79,"address":"64 Burley Road","name":"64 Pizzeria","outcode":"LS3","postcode":"1JX","rating":5,"type_of_food":"Pizza"}
{"_id":{"$oid":"55f14312c7447c3da7051b75"},"num":80,"address":"3 Charles Street","name":"7 \u0026 One","outcode":"BT53","postcode":"6DX","rating":5,"type_of_food":"Chinese"}
{"_id":{"$oid":"55f14312c7447c3da7051b76"},"num":81,"address":"127 St Johns Hill","name":"7 Oaks Grill","outcode":"TN13","postcode":"3PE","rating":4,"type_of_food":"English"}
{"_id":{"$oid":"55f14312c7447c3da7051b77"},"num":82,"address":"Mayfair Court","name":"7 Spices","outcode":"S3","postcode":"8PP","rating":5,"type_of_food":"Curry"}
{"_id":{"$oid":"55f14312c7447c3da7051b78"},"num":83,"address":"203-205 Woodhouse Street","name":"7 Spices","outcode":"LS6","postcode":"2NY","rating":5,"type_of_food":"Curry"}
{"_id":{"$oid":"55f14312c7447c3da7051b79"},"num":84,"address":"975 Carntyne Road","name":"7 Spices Takeaway","outcode":"G32","postcode":"6LY","rating":4,"type_of_food":"Curry"}
{"_id":{"$oid":"55f14312c7447c3da7051b7a"},"num":85,"address":"824 Shields Road","name":"7 STAR Pizza","outcode":"NE6","postcode":"4QN","rating":5,"type_of_food":"Pizza"}
{"_id":{"$oid":"55f14312c7447c3da7051b7b"},"num":86,"address":"824 Shields Road","name":"7 STAR Pizza","outcode":"NE6","postcode":"4QN","rating":5,"type_of_food":"Pizza"}
{"_id":{"$oid":"55f14312c7447c3da7051b7c"},"num":87,"address":"824 Shields Road","name":"7 STAR Pizza","outcode":"NE6","postcode":"4QN","rating":5,"type_of_food":"Pizza"}
{"_id":{"$oid":"55f14312c7447c3da7051b7d"},"num":88,"address":"828 Mosspark Drive","name":"7 Star Spices","outcode":"G52","postcode":"3DA","rating":5,"type_of_food":"Pizza"}
{"_id":{"$oid":"55f14312c7447c3da7051b7e"},"num":89,"address":"192-196 Fleet Road","name":"700 Degrees","outcode":"GU51","postcode":"4BY","rating":4,"type_of_food":"Chicken"}
{"_id":{"$oid":"55f14312c7447c3da7051b7f"},"num":90,"address":"44 London Road","name":"88 Chinese","outcode":"SO15","postcode":"2AH","rating":5,"type_of_food":"Chinese"}
{"_id":{"$oid":"55f14312c7447c3da7051b80"},"num":91,"address":"15 Cross Church Street","name":"88 Noodle Bar","outcode":"HD1","postcode":"2PY","rating":4,"type_of_food":"Chinese"}
{"_id":{"$oid":"55f14312c7447c3da7051b81"},"num":92,"address":"77 North Walls","name":"888 Chinese Takeaway","outcode":"SO23","postcode":"8DA","rating":5,"type_of_food":"Chinese"}
{"_id":{"$oid":"55f14312c7447c3da7051b82"},"num":93,"address":"888 Wimborne Road","name":"888 Triple Eight","outcode":"BH9","postcode":"2DR","rating":5,"type_of_food":"Chinese"}
{"_id":{"$oid":"55f14312c7447c3da7051b83"},"num":94,"address":"7 Shopping Precinct","name":"9 Inch CFC","outcode":"WF7","postcode":"5BX","rating":5,"type_of_food":"Pizza"}
{"_id":{"$oid":"55f14312c7447c3da7051b84"},"num":95,"address":"9 Dromore Road","name":"9th Avenue Pizzeria","outcode":"BT78","postcode":"1QZ","rating":5,"type_of_food":"Pizza"}
{"_id":{"$oid":"55f14312c7447c3da7051b85"},"num":96,"address":"397 Sheldon Heath Road","name":"9th Kitchen","outcode":"B26","postcode":"2UB","rating":5,"type_of_food":"Chinese"}
{"_id":{"$oid":"55f14312c7447c3da7051b86"},"num":97,"address":"267 Nuthurst Road","name":"A \u0026 G Kitchen","outcode":"M40","postcode":"3PU","rating":5,"type_of_food":"Chinese"}
{"_id":{"$oid":"55f14312c7447c3da7051b87"},"num":98,"address":"64 Cowley Road","name":"A \u0026 T Mundi House","outcode":"OX4","postcode":"1JB","rating":4,"type_of_food":"Arabic"}
{"_id":{"$oid":"55f14312c7447c3da7051b88"},"num":99,"address":"8B - 12B Houldsworth Street","name":"A Cake A Shake","outcode":"SK5","postcode":"6DA","rating":4,"type_of_food":"Desserts"}
{"_id":{"$oid":"55f14312c7447c3da7051b89"},"num":100,"address":"8B - 12B Houldsworth Street","name":"A Cake A Shake","outcode":"SK5","postcode":"6DA","rating":4,"type_of_food":"Desserts"}